{
  "type": "FeatureCollection",
  "features": [
    {
      "type": "Feature",
      "properties": {
        "norad_id": 46965,
        "name": "IRIDIUM 33 DEB",
        "group": "iridium-33-debris",
        "lat": 78.77754927911512,
        "lon": -7.182515914402802,
        "alt_km": 695.9380003654196,
        "timestamp": "2025-12-27T21:25:02.901900+00:00",
        "meta_object_name": "IRIDIUM 33 DEB",
        "meta_object_id": "1997-051ABX",
        "meta_epoch": "2025-12-23T05:18:49.392864",
        "meta_mean_motion": 14.60370511,
        "meta_eccentricity": 0.00170224,
        "meta_inclination": 86.3362,
        "meta_ra_of_asc_node": 336.0473,
        "meta_arg_of_pericenter": 295.0187,
        "meta_mean_anomaly": 82.9345,
        "meta_ephemeris_type": 0,
        "meta_classification_type": "U",
        "meta_norad_cat_id": 46965,
        "meta_element_set_no": 999,
        "meta_rev_at_epoch": 62421,
        "meta_bstar": 0.00084803208,
        "meta_mean_motion_dot": 4.13e-05,
        "meta_mean_motion_ddot": 0,
        "tle_line1": "1 46965U 97051ABX 25357.22140501  .00004130  00000+0  84803-3 0  9992",
        "tle_line2": "2 46965  86.3362 336.0473 0017022 295.0187  82.9345 14.60370511624214"
      },
      "geometry": {
        "type": "Point",
        "coordinates": [
          -7.182515914402802,
          78.77754927911512
        ]
      }
    },
    {
      "type": "Feature",
      "properties": {
        "norad_id": 46971,
        "name": "IRIDIUM 33 DEB",
        "group": "iridium-33-debris",
        "lat": 74.74366585978025,
        "lon": -20.43418345878771,
        "alt_km": 565.6130111329221,
        "timestamp": "2025-12-27T21:25:02.901911+00:00",
        "meta_object_name": "IRIDIUM 33 DEB",
        "meta_object_id": "1997-051ACD",
        "meta_epoch": "2025-12-27T05:18:58.153824",
        "meta_mean_motion": 14.98896542,
        "meta_eccentricity": 0.0004057,
        "meta_inclination": 86.3391,
        "meta_ra_of_asc_node": 326.3052,
        "meta_arg_of_pericenter": 228.896,
        "meta_mean_anomaly": 188.5701,
        "meta_ephemeris_type": 0,
        "meta_classification_type": "U",
        "meta_norad_cat_id": 46971,
        "meta_element_set_no": 999,
        "meta_rev_at_epoch": 64447,
        "meta_bstar": 0.0029454,
        "meta_mean_motion_dot": 0.00035746,
        "meta_mean_motion_ddot": 0,
        "tle_line1": "1 46971U 97051ACD 25361.22150641  .00035746  00000+0  29454-2 0  9997",
        "tle_line2": "2 46971  86.3391 326.3052 0004057 228.8960 188.5701 14.98896542644472"
      },
      "geometry": {
        "type": "Point",
        "coordinates": [
          -20.43418345878771,
          74.74366585978025
        ]
      }
    },
    {
      "type": "Feature",
      "properties": {
        "norad_id": 46972,
        "name": "IRIDIUM 33 DEB",
        "group": "iridium-33-debris",
        "lat": 27.65644804770161,
        "lon": -149.01773021281628,
        "alt_km": 722.0468570991707,
        "timestamp": "2025-12-27T21:25:02.901921+00:00",
        "meta_object_name": "IRIDIUM 33 DEB",
        "meta_object_id": "1997-051ACE",
        "meta_epoch": "2025-12-24T20:41:33.679968",
        "meta_mean_motion": 14.50725222,
        "meta_eccentricity": 0.00114655,
        "meta_inclination": 86.386,
        "meta_ra_of_asc_node": 34.1849,
        "meta_arg_of_pericenter": 73.1922,
        "meta_mean_anomaly": 103.3991,
        "meta_ephemeris_type": 0,
        "meta_classification_type": "U",
        "meta_norad_cat_id": 46972,
        "meta_element_set_no": 999,
        "meta_rev_at_epoch": 61748,
        "meta_bstar": 0.00047832722,
        "meta_mean_motion_dot": 1.902e-05,
        "meta_mean_motion_ddot": 0,
        "tle_line1": "1 46972U 97051ACE 25358.86219537  .00001902  00000+0  47833-3 0  9993",
        "tle_line2": "2 46972  86.3860  34.1849 0011465  73.1922 103.3991 14.50725222617483"
      },
      "geometry": {
        "type": "Point",
        "coordinates": [
          -149.01773021281628,
          27.65644804770161
        ]
      }
    },
    {
      "type": "Feature",
      "properties": {
        "norad_id": 46974,
        "name": "IRIDIUM 33 DEB",
        "group": "iridium-33-debris",
        "lat": 14.304703736901242,
        "lon": 99.60476642562186,
        "alt_km": 780.6647435821433,
        "timestamp": "2025-12-27T21:25:02.901931+00:00",
        "meta_object_name": "IRIDIUM 33 DEB",
        "meta_object_id": "1997-051ACG",
        "meta_epoch": "2025-12-26T23:44:28.817952",
        "meta_mean_motion": 14.44752736,
        "meta_eccentricity": 0.00952094,
        "meta_inclination": 86.2979,
        "meta_ra_of_asc_node": 99.0534,
        "meta_arg_of_pericenter": 140.8624,
        "meta_mean_anomaly": 219.9515,
        "meta_ephemeris_type": 0,
        "meta_classification_type": "U",
        "meta_norad_cat_id": 46974,
        "meta_element_set_no": 999,
        "meta_rev_at_epoch": 57714,
        "meta_bstar": 0.0042244845,
        "meta_mean_motion_dot": 0.00015541,
        "meta_mean_motion_ddot": 0,
        "tle_line1": "1 46974U 97051ACG 25360.98922243  .00015541  00000+0  42245-2 0  9991",
        "tle_line2": "2 46974  86.2979  99.0534 0095209 140.8624 219.9515 14.44752736577142"
      },
      "geometry": {
        "type": "Point",
        "coordinates": [
          99.60476642562186,
          14.304703736901242
        ]
      }
    },
    {
      "type": "Feature",
      "properties": {
        "norad_id": 46979,
        "name": "IRIDIUM 33 DEB",
        "group": "iridium-33-debris",
        "lat": -18.740909879709825,
        "lon": 40.25905117372015,
        "alt_km": 620.7061807859918,
        "timestamp": "2025-12-27T21:25:02.901942+00:00",
        "meta_object_name": "IRIDIUM 33 DEB",
        "meta_object_id": "1997-051ACM",
        "meta_epoch": "2025-12-24T20:59:38.183136",
        "meta_mean_motion": 14.90364123,
        "meta_eccentricity": 0.002819,
        "meta_inclination": 86.3328,
        "meta_ra_of_asc_node": 42.91,
        "meta_arg_of_pericenter": 179.7106,
        "meta_mean_anomaly": 180.4142,
        "meta_ephemeris_type": 0,
        "meta_classification_type": "U",
        "meta_norad_cat_id": 46979,
        "meta_element_set_no": 999,
        "meta_rev_at_epoch": 35609,
        "meta_bstar": 0.0040991,
        "meta_mean_motion_dot": 0.00040379,
        "meta_mean_motion_ddot": 0,
        "tle_line1": "1 46979U 97051ACM 25358.87474749  .00040379  00000+0  40991-2 0  9997",
        "tle_line2": "2 46979  86.3328  42.9100 0028190 179.7106 180.4142 14.90364123356090"
      },
      "geometry": {
        "type": "Point",
        "coordinates": [
          40.25905117372015,
          -18.740909879709825
        ]
      }
    }
  ]
}